start=new Date('2022-01-22T00:00:00.000Z').valueOf();
sats=[{"REV_AT_EPOCH":"5096","MEAN_ANOMALY":"258.7986","SITE":"AFETR","MEAN_ELEMENT_THEORY":"SGP4","COUNTRY_CODE":"US","ARG_OF_PERICENTER":"101.3142","NORAD_CAT_ID":"47732","OBJECT_ID":"2021-017L","SEMIMAJOR_AXIS":"6925.340","PERIOD":"95.592","ELEMENT_SET_NO":"999","RCS_SIZE":"LARGE","PERIAPSIS":"546.349","BSTAR":"0.00013183000000","MEAN_MOTION":"15.06402802","TLE_LINE2":"2 47732  53.0554  57.1956 0001236 101.3142 258.7986 15.06402802 50967","REF_FRAME":"TEME","APOAPSIS":"548.061","EPHEMERIS_TYPE":"0","CLASSIFICATION_TYPE":"U","GP_ID":"194334655","FILE":"3279412","LAUNCH_DATE":"2021-03-04","CENTER_NAME":"EARTH","OBJECT_TYPE":"PAYLOAD","TIME_SYSTEM":"UTC","INCLINATION":"53.0554","DECAY_DATE":null,"RA_OF_ASC_NODE":"57.1956","TLE_LINE1":"1 47732U 21017L   22021.48584255  .00001683  00000-0  13183-3 0  9999","ECCENTRICITY":"0.00012360","MEAN_MOTION_DDOT":"0.0000000000000","EPOCH":"2022-01-21T11:39:36.796320","OBJECT_NAME":"STARLINK-2142","MEAN_MOTION_DOT":"0.00001683"},{"PERIAPSIS":"546.014","RCS_SIZE":"LARGE","PERIOD":"95.592","ELEMENT_SET_NO":"999","TLE_LINE2":"2 47733  53.0499 151.4521 0001751  74.6976 285.4207 15.06395581 49664","APOAPSIS":"548.440","REF_FRAME":"TEME","BSTAR":"-0.00001881700000","MEAN_MOTION":"15.06395581","EPHEMERIS_TYPE":"0","CLASSIFICATION_TYPE":"U","GP_ID":"194334168","REV_AT_EPOCH":"4966","COUNTRY_CODE":"US","MEAN_ELEMENT_THEORY":"SGP4","NORAD_CAT_ID":"47733","ARG_OF_PERICENTER":"74.6976","MEAN_ANOMALY":"285.4207","SITE":"AFETR","SEMIMAJOR_AXIS":"6925.362","OBJECT_ID":"2021-017M","EPOCH":"2022-01-21T15:45:46.405440","OBJECT_NAME":"STARLINK-2143","MEAN_MOTION_DOT":"-0.00000562","TIME_SYSTEM":"UTC","FILE":"3279412","LAUNCH_DATE":"2021-03-04","OBJECT_TYPE":"PAYLOAD","CENTER_NAME":"EARTH","INCLINATION":"53.0499","DECAY_DATE":null,"ECCENTRICITY":"0.00017510","MEAN_MOTION_DDOT":"0.0000000000000","RA_OF_ASC_NODE":"151.4521","TLE_LINE1":"1 47733U 21017M   22021.65678710 -.00000562  00000-0 -18817-4 0  9996"},{"PERIOD":"95.592","ELEMENT_SET_NO":"999","PERIAPSIS":"546.114","RCS_SIZE":"LARGE","BSTAR":"0.00006531200000","MEAN_MOTION":"15.06397537","TLE_LINE2":"2 47734  53.0548 141.6589 0001598  77.6240 282.4928 15.06397537 50449","APOAPSIS":"548.328","REF_FRAME":"TEME","EPHEMERIS_TYPE":"0","GP_ID":"194329001","CLASSIFICATION_TYPE":"U","REV_AT_EPOCH":"5044","MEAN_ANOMALY":"282.4928","SITE":"AFETR","MEAN_ELEMENT_THEORY":"SGP4","COUNTRY_CODE":"US","ARG_OF_PERICENTER":"77.6240","NORAD_CAT_ID":"47734","SEMIMAJOR_AXIS":"6925.356","OBJECT_ID":"2021-017N","EPOCH":"2022-01-21T14:38:06.205056","OBJECT_NAME":"STARLINK-2144","MEAN_MOTION_DOT":"0.00000691","FILE":"3279324","LAUNCH_DATE":"2021-03-04","OBJECT_TYPE":"PAYLOAD","CENTER_NAME":"EARTH","TIME_SYSTEM":"UTC","DECAY_DATE":null,"INCLINATION":"53.0548","TLE_LINE1":"1 47734U 21017N   22021.60979404  .00000691  00000-0  65312-4 0  9999","RA_OF_ASC_NODE":"141.6589","ECCENTRICITY":"0.00015980","MEAN_MOTION_DDOT":"0.0000000000000"},{"REF_FRAME":"TEME","APOAPSIS":"548.139","TLE_LINE2":"2 47735  53.0561  66.9328 0001312  68.1641 291.9488 15.06394396 51468","MEAN_MOTION":"15.06394396","BSTAR":"-0.00004016800000","PERIAPSIS":"546.322","RCS_SIZE":"LARGE","ELEMENT_SET_NO":"999","PERIOD":"95.592","CLASSIFICATION_TYPE":"U","GP_ID":"194329751","EPHEMERIS_TYPE":"0","COUNTRY_CODE":"US","MEAN_ELEMENT_THEORY":"SGP4","ARG_OF_PERICENTER":"68.1641","NORAD_CAT_ID":"47735","SITE":"AFETR","MEAN_ANOMALY":"291.9488","REV_AT_EPOCH":"5146","OBJECT_ID":"2021-017P","SEMIMAJOR_AXIS":"6925.366","MEAN_MOTION_DOT":"-0.00000880","OBJECT_NAME":"STARLINK-2146","EPOCH":"2022-01-21T13:03:11.803968","INCLINATION":"53.0561","DECAY_DATE":null,"TIME_SYSTEM":"UTC","OBJECT_TYPE":"PAYLOAD","CENTER_NAME":"EARTH","LAUNCH_DATE":"2021-03-04","FILE":"3279324","MEAN_MOTION_DDOT":"0.0000000000000","ECCENTRICITY":"0.00013120","TLE_LINE1":"1 47735U 21017P   22021.54388662 -.00000880  00000-0 -40168-4 0  9997","RA_OF_ASC_NODE":"66.9328"},{"MEAN_MOTION_DOT":"0.00001839","OBJECT_NAME":"STARLINK-2147","EPOCH":"2022-01-21T13:51:38.809728","INCLINATION":"53.0549","DECAY_DATE":null,"OBJECT_TYPE":"PAYLOAD","CENTER_NAME":"EARTH","FILE":"3279324","LAUNCH_DATE":"2021-03-04","TIME_SYSTEM":"UTC","RA_OF_ASC_NODE":"131.8015","TLE_LINE1":"1 47736U 21017Q   22021.57753252  .00001839  00000-0  14233-3 0  9998","MEAN_MOTION_DDOT":"0.0000000000000","ECCENTRICITY":"0.00014540","MEAN_MOTION":"15.06395356","BSTAR":"0.00014233000000","APOAPSIS":"548.235","REF_FRAME":"TEME","TLE_LINE2":"2 47736  53.0549 131.8015 0001454  71.2483 288.8664 15.06395356 50610","ELEMENT_SET_NO":"999","PERIOD":"95.592","PERIAPSIS":"546.221","RCS_SIZE":"LARGE","CLASSIFICATION_TYPE":"U","GP_ID":"194328002","EPHEMERIS_TYPE":"0","SITE":"AFETR","MEAN_ANOMALY":"288.8664","COUNTRY_CODE":"US","MEAN_ELEMENT_THEORY":"SGP4","NORAD_CAT_ID":"47736","ARG_OF_PERICENTER":"71.2483","REV_AT_EPOCH":"5061","OBJECT_ID":"2021-017Q","SEMIMAJOR_AXIS":"6925.363"},{"MEAN_MOTION_DOT":"0.00000091","EPOCH":"2022-01-21T11:02:28.772736","OBJECT_NAME":"STARLINK-2148","DECAY_DATE":null,"INCLINATION":"53.0554","TIME_SYSTEM":"UTC","FILE":"3279324","LAUNCH_DATE":"2021-03-04","CENTER_NAME":"EARTH","OBJECT_TYPE":"PAYLOAD","ECCENTRICITY":"0.00013630","MEAN_MOTION_DDOT":"0.0000000000000","TLE_LINE1":"1 47737U 21017R   22021.46005524  .00000091  00000-0  24999-4 0  9999","RA_OF_ASC_NODE":"67.3138","TLE_LINE2":"2 47737  53.0554  67.3138 0001363  87.8201 272.2944 15.06395095 51503","REF_FRAME":"TEME","APOAPSIS":"548.173","BSTAR":"0.00002499900000","MEAN_MOTION":"15.06395095","RCS_SIZE":"LARGE","PERIAPSIS":"546.285","PERIOD":"95.592","ELEMENT_SET_NO":"999","EPHEMERIS_TYPE":"0","GP_ID":"194328747","CLASSIFICATION_TYPE":"U","MEAN_ELEMENT_THEORY":"SGP4","COUNTRY_CODE":"US","ARG_OF_PERICENTER":"87.8201","NORAD_CAT_ID":"47737","MEAN_ANOMALY":"272.2944","SITE":"AFETR","REV_AT_EPOCH":"5150","OBJECT_ID":"2021-017R","SEMIMAJOR_AXIS":"6925.364"},{"MEAN_MOTION_DDOT":"0.0000000000000","ECCENTRICITY":"0.00048100","TLE_LINE1":"1 47738U 21017S   22021.59229233 -.00002338  00000-0 -13800-3 0  9995","RA_OF_ASC_NODE":"131.7383","TIME_SYSTEM":"UTC","OBJECT_TYPE":"PAYLOAD","CENTER_NAME":"EARTH","FILE":"3279324","LAUNCH_DATE":"2021-03-04","DECAY_DATE":null,"INCLINATION":"53.0547","OBJECT_NAME":"STARLINK-2149","EPOCH":"2022-01-21T14:12:54.057312","MEAN_MOTION_DOT":"-0.00002338","SEMIMAJOR_AXIS":"6925.350","OBJECT_ID":"2021-017S","REV_AT_EPOCH":"5061","COUNTRY_CODE":"US","ARG_OF_PERICENTER":"157.0780","MEAN_ELEMENT_THEORY":"SGP4","NORAD_CAT_ID":"47738","MEAN_ANOMALY":"203.0424","SITE":"AFETR","GP_ID":"194329501","CLASSIFICATION_TYPE":"U","EPHEMERIS_TYPE":"0","RCS_SIZE":"LARGE","PERIAPSIS":"543.884","ELEMENT_SET_NO":"999","PERIOD":"95.592","REF_FRAME":"TEME","APOAPSIS":"550.546","TLE_LINE2":"2 47738  53.0547 131.7383 0004810 157.0780 203.0424 15.06399422 50610","MEAN_MOTION":"15.06399422","BSTAR":"-0.00013800000000"},{"RA_OF_ASC_NODE":"155.9254","TLE_LINE1":"1 47739U 21017T   22021.77243270 -.00001868  00000-0 -10654-3 0  9994","ECCENTRICITY":"0.00013940","MEAN_MOTION_DDOT":"0.0000000000000","INCLINATION":"53.0544","DECAY_DATE":null,"FILE":"3279420","LAUNCH_DATE":"2021-03-04","CENTER_NAME":"EARTH","OBJECT_TYPE":"PAYLOAD","TIME_SYSTEM":"UTC","MEAN_MOTION_DOT":"-0.00001868","EPOCH":"2022-01-21T18:32:18.185280","OBJECT_NAME":"STARLINK-2150","OBJECT_ID":"2021-017T","SEMIMAJOR_AXIS":"6925.335","SITE":"AFETR","MEAN_ANOMALY":"281.8473","COUNTRY_CODE":"US","NORAD_CAT_ID":"47739","MEAN_ELEMENT_THEORY":"SGP4","ARG_OF_PERICENTER":"78.2672","REV_AT_EPOCH":"4961","EPHEMERIS_TYPE":"0","GP_ID":"194334780","CLASSIFICATION_TYPE":"U","BSTAR":"-0.00010654000000","MEAN_MOTION":"15.06404581","TLE_LINE2":"2 47739  53.0544 155.9254 0001394  78.2672 281.8473 15.06404581 49610","APOAPSIS":"548.165","REF_FRAME":"TEME","PERIOD":"95.592","ELEMENT_SET_NO":"999","RCS_SIZE":"LARGE","PERIAPSIS":"546.234"},{"OBJECT_ID":"2021-017U","SEMIMAJOR_AXIS":"6925.379","MEAN_ANOMALY":"281.3038","SITE":"AFETR","COUNTRY_CODE":"US","ARG_OF_PERICENTER":"78.8101","MEAN_ELEMENT_THEORY":"SGP4","NORAD_CAT_ID":"47740","REV_AT_EPOCH":"5046","CLASSIFICATION_TYPE":"U","GP_ID":"194328502","EPHEMERIS_TYPE":"0","MEAN_MOTION":"15.06389947","BSTAR":"-0.00005258000000","REF_FRAME":"TEME","APOAPSIS":"548.168","TLE_LINE2":"2 47740  53.0538 141.9088 0001333  78.8101 281.3038 15.06389947 50466","ELEMENT_SET_NO":"999","PERIOD":"95.593","RCS_SIZE":"LARGE","PERIAPSIS":"546.321","TLE_LINE1":"1 47740U 21017U   22021.55451473 -.00001064  00000-0 -52580-4 0  9991","RA_OF_ASC_NODE":"141.9088","MEAN_MOTION_DDOT":"0.0000000000000","ECCENTRICITY":"0.00013330","INCLINATION":"53.0538","DECAY_DATE":null,"OBJECT_TYPE":"PAYLOAD","CENTER_NAME":"EARTH","FILE":"3279324","LAUNCH_DATE":"2021-03-04","TIME_SYSTEM":"UTC","MEAN_MOTION_DOT":"-0.00001064","OBJECT_NAME":"STARLINK-2152","EPOCH":"2022-01-21T13:18:30.072672"},{"MEAN_MOTION_DOT":"0.00006518","OBJECT_NAME":"STARLINK-2154","EPOCH":"2022-01-21T15:15:19.223424","ECCENTRICITY":"0.00012320","MEAN_MOTION_DDOT":"0.0000000000000","RA_OF_ASC_NODE":"141.5443","TLE_LINE1":"1 47741U 21017V   22021.63563916  .00006518  00000-0  45650-3 0  9993","DECAY_DATE":null,"INCLINATION":"53.0531","TIME_SYSTEM":"UTC","FILE":"3279414","LAUNCH_DATE":"2021-03-04","CENTER_NAME":"EARTH","OBJECT_TYPE":"PAYLOAD","EPHEMERIS_TYPE":"0","GP_ID":"194334681","CLASSIFICATION_TYPE":"U","TLE_LINE2":"2 47741  53.0531 141.5443 0001232  78.4788 281.6339 15.06363110 49803","REF_FRAME":"TEME","APOAPSIS":"548.180","BSTAR":"0.00045650000000","MEAN_MOTION":"15.06363110","PERIAPSIS":"546.473","RCS_SIZE":"LARGE","PERIOD":"95.594","ELEMENT_SET_NO":"999","OBJECT_ID":"2021-017V","SEMIMAJOR_AXIS":"6925.462","COUNTRY_CODE":"US","MEAN_ELEMENT_THEORY":"SGP4","NORAD_CAT_ID":"47741","ARG_OF_PERICENTER":"78.4788","MEAN_ANOMALY":"281.6339","SITE":"AFETR","REV_AT_EPOCH":"4980"}];
